[
    {
        "Altitude(m)": 605459.0549711151,
        "Argument of Periapsis(deg)": 0.0,
        "Eccentricity": 0.0,
        "Inclination(deg)": 60.0,
        "Latitude(deg)": 27.988298984078366,
        "Longitude(deg)": 147.79862588078316,
        "Mean Anomaly(deg)": 32.72730000000001,
        "RAAN(deg)": 229.99999999999997,
        "Satellite Name": "Test1 1014",
        "Satellite Number": 1014,
        "Semi-Major Axis(m)": 6980739.136638005,
        "Time(s)": 0
    },
    {
        "Altitude(m)": 605535.8461511012,
        "Argument of Periapsis(deg)": 0.00010418945913296404,
        "Eccentricity": 0.0,
        "Inclination(deg)": 60.0,
        "Latitude(deg)": 28.501427997257878,
        "Longitude(deg)": 148.15557213484425,
        "Mean Anomaly(deg)": 33.34740614546182,
        "RAAN(deg)": 229.99957995086024,
        "Satellite Name": "Test1 1014",
        "Satellite Number": 1014,
        "Semi-Major Axis(m)": 6980739.136638005,
        "Time(s)": 10
    }
]